#dP2018  9 17  0  0  0.00000000      96 __u+U IGS08 FIT  IAC
## 2019  86400.00000000   900.00000000 58378 0.0000000000000
+   90   C01C02C03C04C05C06C07C08C09C10C11C12C13C14E01E02E03
+        E04E05E07E08E09E11E12E14E18E19E21E24E25E26E27E30G01
+        G02G03G05G06G07G08G09G10G11G12G13G14G15G16G17G18G19
+        G20G21G22G23G24G25G26G27G28G29G30G31G32J01J02J03R01
+        R02R03R04R05R07R08R09R10R11R13R14R15R16R17R18R19R20
+        R21R22R23R24R26  0  0  0  0  0  0  0  0  0  0  0  0
++        12 11 13  0 12  8  8  8  8  8  7  7  8  7  7  7  7
++         7  7  7  7  7  7  7  7  7  7  8  7  7  7  7  7  3
++         3  3  3  3  3  3  3  3  3  3  3  3  3  3  3  3  3
++         3  3  3  3  3  3  3  3  3  3  3  3  3 10 10 11  7
++         5  5  5  5  5  5  5  5  5  5  5  5  5  5  5  5  5
++         5  5  5  7  8  0  0  0  0  0  0  0  0  0  0  0  0
%c M  cc GPS ccc cccc cccc cccc cccc ccccc ccccc ccccc ccccc
%c cc cc ccc ccc cccc cccc cccc cccc ccccc ccccc ccccc ccccc
%f  1.2500000  1.025000000  0.00000000000  0.000000000000000
%f  0.0000000  0.000000000  0.00000000000  0.000000000000000
%i    0    0    0    0      0      0      0      0         0
%i    0    0    0    0      0      0      0      0         0
/* INFORMATION & ANALYSIS CENTER (IAC)            FINAL DATA
/* S/V CLOCKS ARE ALIGNED TO GPS & GLONASS TIME RESPECTIVELY
/* USING THE BROADCAST EPHEMERIS                            
/* PCV:IGS14_2000 OL/AL:FES2004  NONE     YN ORB:CoN CLK:CoN
*  2018 09 17 23 30  0.00000000
PC01 -32295.874874  27066.437445    922.188651    -38.441586
PC02   4316.337256  41967.512855   -161.247293     37.861312
PC03 -14805.231272  39475.151181    983.616917   -423.670379
PC04      0.000000      0.000000      0.000000 999999.999999
PC05  21907.414670  36017.959715   -360.773000   -458.609210
PC06 -14348.839910  20608.472887 -33609.462422    304.835982
PC07 -22232.183825  33546.093581  11902.241974      9.065241
PC08  -8184.601288  34059.454067  23723.093177    529.764291
PC09   2475.751653  26204.816469 -32698.261324    123.002703
PC10 -11145.154317  34077.410907  22023.990777    -81.396941
PC11  15540.877447  22806.158919   4479.824298   -685.057541
PC12   -141.045441  19803.246114  19755.311867    614.366161
PC13   1482.210747  40973.917210  10428.396709   -282.874392
PC14   9917.210140  13806.871612 -22066.843694    417.822378
PE01  17002.726542 -23945.214000  -3747.699075   -437.077421
PE02 -16962.301927  23957.729243   3805.795372     27.837885
PE03 -13180.139670  13894.165474 -22563.788976    -78.278850
PE04  -9056.170578 -17565.271021  22041.840982   -119.481004
PE05 -27830.289724   2056.098651  -9864.274583    192.101254
PE07  26148.729040  10933.504041  -8547.994845    -40.254718
PE08   9289.703410  17345.745057 -22112.931126   6500.716231
PE09 -26222.802507 -10667.697705   8625.347057   6673.665206
PE11 -17763.702674 -17804.980979  15605.736322   5129.868985
PE12  -8437.182349 -28234.567144  -2847.719903   5076.432483
PE14  13389.876046  18876.395704   8714.390503   6518.027106
PE18  -7100.650025 -24788.055950 -18578.706142   5898.857395
PE19  15083.300848 -12948.654154  21935.114519    -12.151134
PE21  22669.587311 -11625.507282  15086.591750   -495.164628
PE24 -15277.282505  -6837.046784 -24417.242113   6487.677734
PE25 -22652.969286  11601.276663 -15091.482220   2039.167185
PE26  16585.094163  -2624.087809 -24380.387835   5465.674040
PE27  14786.289277   7413.955980  24558.133814    629.026874
PE30  -1248.918562  21784.579049  19999.336664   5504.704294
PG01 -13194.948984  13800.834366  18164.628294    -89.386331
PG02  14298.041124   9014.812539 -19969.023230     -4.722356
PG03 -22561.089584  13670.482184  -2794.674906    137.617045
PG05  22109.244863    294.930461 -14984.851747     -1.867130
PG06   6867.726595  22820.504423 -11678.579438    362.167752
PG07  -6008.751844  24826.745872  -6091.045313    122.325435
PG08 -22493.551981  -2820.344279  14010.938253   -115.490451
PG09  -6504.400195  14054.782825 -21608.772308    505.906331
PG10  -1859.484210 -15755.041247  21317.463504    181.261115
PG11 -13665.846253   8913.663258  20419.642782   -717.175394
PG12  24660.329611  -9422.399866   1671.500973    306.189968
PG13  22510.669178  11242.626115   8423.379229    -88.952456
PG14 -17821.528029 -18961.957381   6067.096053    -97.245987
PG15  21013.677664  -2439.166947  16058.845085   -345.612738
PG16 -20934.433714  -3203.680039 -16446.162112      8.519257
PG17  10657.776768  19766.650517  14670.508307    -54.575118
PG18 -15046.009095   3978.743647  21030.336121     58.435768
PG19  18144.674964  18604.371807   4835.458517   -401.746289
PG20   7523.617188 -19493.521838  16214.609559    515.962406
PG21   1437.517390 -26396.884934  -2003.915050   -335.391769
PG22 -24211.857445   9515.221161   5514.127924   -522.136044
PG23 -15768.519904   7175.106305 -19938.253599   -210.642049
PG24  14587.654263  -9416.179083  19897.825289    -55.515982
PG25  17372.158143 -16941.599820 -10698.099524   -648.563826
PG26 -13021.808979  -9869.142880 -20971.179013    -17.184366
PG27 -23586.139746 -11720.674138   4309.396297    343.911287
PG28  -1986.231954  16233.448917  21563.792129    745.006570
PG29   7840.758370 -12471.251666 -22125.150828    374.429147
PG30    626.761469  26083.825986   4469.495502     22.610387
PG31  -7823.281147 -21147.265979 -13657.673714     92.868264
PG32 -12454.117325 -19245.452308  13535.634100   -420.607040
PJ01 -31397.592736  23061.145408 -11516.061214   -342.053044
PJ02 -24489.693832  31667.466894  -9142.128164      0.017490
PJ03 -27073.677493  22391.442266  28425.752273      0.076232
PR01  16333.985634   8218.236959 -17792.648373     32.145665
PR02  25478.472875   -314.677157    295.093617    330.151221
PR03  17774.215449  -8010.290806  16462.191921    143.520396
PR04   -797.518432 -10962.377140  23032.773418    276.576555
PR05 -18038.723633  -7497.703519  16422.468346     10.891435
PR07 -17506.326278   8094.072003 -16680.936323    -47.350835
PR08    -20.153691  10951.170383 -22987.679671     21.257344
PR09 -14994.205867   7325.655857 -19246.432447     28.918824
PR10 -14736.713358  19931.076927  -5838.002123     31.873111
PR11  -5762.977601  21677.449413  12118.753434    -41.187808
PR13  14583.826868  -7258.177480  19623.292031    -14.793721
PR14  14723.909039 -19997.114221   5895.656650     31.103750
PR15   8726.102470 -22493.842319  -8121.279911    -16.487248
PR16  -5922.284170 -11197.981576 -22136.471035    101.895038
PR17   6253.987724  -9987.124039 -22614.041254    165.058167
PR18  -5463.775444 -21239.946592 -13062.084837     24.901225
PR19 -13721.751029 -21151.122230   3838.497596    -59.584683
PR20 -14361.484706  -7648.385161  19660.430646   -352.611588
PR21  -5861.320766  10401.468516  22541.128683     -4.016359
PR22   6764.563392  21847.310602  11169.994952    -62.662866
PR23  15149.767265  18872.471086  -8085.213666    178.896724
PR24  14193.127204   6179.464140 -20301.922255   -171.499266
PR26 -14850.592293  -8536.473174  18895.318529     47.984599
EOF
